[{"OBJECT_NAME":"STARLINK-30430","OBJECT_ID":"2023-141K","EPOCH":"2026-03-21T19:33:53.998848","MEAN_MOTION":15.30206172,"ECCENTRICITY":6.538e-5,"INCLINATION":53.1602,"RA_OF_ASC_NODE":227.859,"ARG_OF_PERICENTER":70.3283,"MEAN_ANOMALY":289.7788,"EPHEMERIS_TYPE":0,"CLASSIFICATION_TYPE":"U","NORAD_CAT_ID":57849,"ELEMENT_SET_NO":999,"REV_AT_EPOCH":14218,"BSTAR":8.719608e-5,"MEAN_MOTION_DOT":2.225e-5,"MEAN_MOTION_DDOT":0},{"OBJECT_NAME":"STARLINK-30425","OBJECT_ID":"2023-141L","EPOCH":"2026-03-22T02:23:31.186464","MEAN_MOTION":15.30184514,"ECCENTRICITY":0.00012796,"INCLINATION":53.1586,"RA_OF_ASC_NODE":226.5499,"ARG_OF_PERICENTER":78.4758,"MEAN_ANOMALY":281.6386,"EPHEMERIS_TYPE":0,"CLASSIFICATION_TYPE":"U","NORAD_CAT_ID":57850,"ELEMENT_SET_NO":999,"REV_AT_EPOCH":14222,"BSTAR":-2.7419495e-5,"MEAN_MOTION_DOT":-1.171e-5,"MEAN_MOTION_DDOT":0},{"OBJECT_NAME":"STARLINK-30405","OBJECT_ID":"2023-141M","EPOCH":"2026-03-21T19:43:00.701760","MEAN_MOTION":15.3020718,"ECCENTRICITY":0.00010134,"INCLINATION":53.1586,"RA_OF_ASC_NODE":227.8437,"ARG_OF_PERICENTER":102.7048,"MEAN_ANOMALY":257.4067,"EPHEMERIS_TYPE":0,"CLASSIFICATION_TYPE":"U","NORAD_CAT_ID":57851,"ELEMENT_SET_NO":999,"REV_AT_EPOCH":14218,"BSTAR":6.3657872e-5,"MEAN_MOTION_DOT":1.527e-5,"MEAN_MOTION_DDOT":0},{"OBJECT_NAME":"STARLINK-30431","OBJECT_ID":"2023-141N","EPOCH":"2026-03-21T18:42:14.461920","MEAN_MOTION":15.30200236,"ECCENTRICITY":0.00010707,"INCLINATION":53.1602,"RA_OF_ASC_NODE":227.6343,"ARG_OF_PERICENTER":91.7599,"MEAN_ANOMALY":268.3524,"EPHEMERIS_TYPE":0,"CLASSIFICATION_TYPE":"U","NORAD_CAT_ID":57852,"ELEMENT_SET_NO":999,"REV_AT_EPOCH":14217,"BSTAR":3.4965515e-5,"MEAN_MOTION_DOT":6.77e-6,"MEAN_MOTION_DDOT":0},{"OBJECT_NAME":"STARLINK-30404","OBJECT_ID":"2023-141P","EPOCH":"2026-03-21T18:36:09.640512","MEAN_MOTION":15.30191821,"ECCENTRICITY":9.316e-5,"INCLINATION":53.158,"RA_OF_ASC_NODE":227.6099,"ARG_OF_PERICENTER":101.4387,"MEAN_ANOMALY":258.6719,"EPHEMERIS_TYPE":0,"CLASSIFICATION_TYPE":"U","NORAD_CAT_ID":57853,"ELEMENT_SET_NO":999,"REV_AT_EPOCH":14218,"BSTAR":-2.15976e-6,"MEAN_MOTION_DOT":-4.23e-6,"MEAN_MOTION_DDOT":0},{"OBJECT_NAME":"STARLINK-30412","OBJECT_ID":"2023-141Q","EPOCH":"2026-03-21T15:43:14.827008","MEAN_MOTION":15.30207087,"ECCENTRICITY":0.00010378,"INCLINATION":53.1587,"RA_OF_ASC_NODE":228.2817,"ARG_OF_PERICENTER":97.5198,"MEAN_ANOMALY":262.592,"EPHEMERIS_TYPE":0,"CLASSIFICATION_TYPE":"U","NORAD_CAT_ID":57854,"ELEMENT_SET_NO":999,"REV_AT_EPOCH":14216,"BSTAR":4.9952401e-5,"MEAN_MOTION_DOT":1.121e-5,"MEAN_MOTION_DDOT":0},{"OBJECT_NAME":"STARLINK-30392","OBJECT_ID":"2023-141R","EPOCH":"2026-03-21T18:46:47.847072","MEAN_MOTION":15.30200119,"ECCENTRICITY":0.00010148,"INCLINATION":53.1593,"RA_OF_ASC_NODE":227.6559,"ARG_OF_PERICENTER":88.0024,"MEAN_ANOMALY":272.1093,"EPHEMERIS_TYPE":0,"CLASSIFICATION_TYPE":"U","NORAD_CAT_ID":57855,"ELEMENT_SET_NO":999,"REV_AT_EPOCH":14218,"BSTAR":3.6925934e-5,"MEAN_MOTION_DOT":7.35e-6,"MEAN_MOTION_DDOT":0},{"OBJECT_NAME":"STARLINK-30291","OBJECT_ID":"2023-141S","EPOCH":"2026-03-22T03:10:30.331200","MEAN_MOTION":15.30181956,"ECCENTRICITY":0.00014629,"INCLINATION":53.162,"RA_OF_ASC_NODE":226.2821,"ARG_OF_PERICENTER":93.4508,"MEAN_ANOMALY":266.6661,"EPHEMERIS_TYPE":0,"CLASSIFICATION_TYPE":"U","NORAD_CAT_ID":57856,"ELEMENT_SET_NO":999,"REV_AT_EPOCH":14223,"BSTAR":3.9211674e-5,"MEAN_MOTION_DOT":8.02e-6,"MEAN_MOTION_DDOT":0},{"OBJECT_NAME":"STARLINK-30424","OBJECT_ID":"2023-141T","EPOCH":"2026-03-21T17:47:31.309440","MEAN_MOTION":15.30202362,"ECCENTRICITY":0.00012375,"INCLINATION":53.1588,"RA_OF_ASC_NODE":202.1422,"ARG_OF_PERICENTER":76.6515,"MEAN_ANOMALY":283.4624,"EPHEMERIS_TYPE":0,"CLASSIFICATION_TYPE":"U","NORAD_CAT_ID":57857,"ELEMENT_SET_NO":999,"REV_AT_EPOCH":14253,"BSTAR":7.1812344e-5,"MEAN_MOTION_DOT":1.768e-5,"MEAN_MOTION_DDOT":0},{"OBJECT_NAME":"STARLINK-30290","OBJECT_ID":"2023-141U","EPOCH":"2026-03-22T02:50:45.588480","MEAN_MOTION":15.30185814,"ECCENTRICITY":0.00014169,"INCLINATION":53.1624,"RA_OF_ASC_NODE":226.1969,"ARG_OF_PERICENTER":95.9986,"MEAN_ANOMALY":264.1176,"EPHEMERIS_TYPE":0,"CLASSIFICATION_TYPE":"U","NORAD_CAT_ID":57858,"ELEMENT_SET_NO":999,"REV_AT_EPOCH":14223,"BSTAR":-6.275341e-6,"MEAN_MOTION_DOT":-5.45e-6,"MEAN_MOTION_DDOT":0},{"OBJECT_NAME":"STARLINK-30414","OBJECT_ID":"2023-141V","EPOCH":"2026-03-22T02:46:12.135072","MEAN_MOTION":15.30184046,"ECCENTRICITY":0.00012721,"INCLINATION":53.1592,"RA_OF_ASC_NODE":226.1767,"ARG_OF_PERICENTER":94.8005,"MEAN_ANOMALY":265.3141,"EPHEMERIS_TYPE":0,"CLASSIFICATION_TYPE":"U","NORAD_CAT_ID":57859,"ELEMENT_SET_NO":999,"REV_AT_EPOCH":14223,"BSTAR":-1.1700179e-5,"MEAN_MOTION_DOT":-7.05e-6,"MEAN_MOTION_DDOT":0},{"OBJECT_NAME":"STARLINK-30272","OBJECT_ID":"2023-141W","EPOCH":"2026-03-22T03:15:01.726560","MEAN_MOTION":15.30213711,"ECCENTRICITY":9.755e-5,"INCLINATION":53.1603,"RA_OF_ASC_NODE":226.2999,"ARG_OF_PERICENTER":80.0916,"MEAN_ANOMALY":280.0195,"EPHEMERIS_TYPE":0,"CLASSIFICATION_TYPE":"U","NORAD_CAT_ID":57860,"ELEMENT_SET_NO":999,"REV_AT_EPOCH":14223,"BSTAR":0.00011721123,"MEAN_MOTION_DOT":3.115e-5,"MEAN_MOTION_DDOT":0},{"OBJECT_NAME":"STARLINK-30432","OBJECT_ID":"2023-144A","EPOCH":"2026-03-22T01:50:45.327264","MEAN_MOTION":15.27570507,"ECCENTRICITY":7.177e-5,"INCLINATION":43.0023,"RA_OF_ASC_NODE":215.096,"ARG_OF_PERICENTER":276.7931,"MEAN_ANOMALY":83.2839,"EPHEMERIS_TYPE":0,"CLASSIFICATION_TYPE":"U","NORAD_CAT_ID":57864,"ELEMENT_SET_NO":999,"REV_AT_EPOCH":13949,"BSTAR":1.4622174e-5,"MEAN_MOTION_DOT":1.4e-6,"MEAN_MOTION_DDOT":0},{"OBJECT_NAME":"STARLINK-30427","OBJECT_ID":"2023-144B","EPOCH":"2026-03-22T01:56:18.075264","MEAN_MOTION":15.27573855,"ECCENTRICITY":0.00011916,"INCLINATION":43.002,"RA_OF_ASC_NODE":215.1174,"ARG_OF_PERICENTER":266.112,"MEAN_ANOMALY":93.9595,"EPHEMERIS_TYPE":0,"CLASSIFICATION_TYPE":"U","NORAD_CAT_ID":57865,"ELEMENT_SET_NO":999,"REV_AT_EPOCH":13949,"BSTAR":-3.6655274e-5,"MEAN_MOTION_DOT":-1.27e-5,"MEAN_MOTION_DDOT":0},{"OBJECT_NAME":"STARLINK-30393","OBJECT_ID":"2023-144C","EPOCH":"2026-03-22T01:38:58.230528","MEAN_MOTION":15.26741751,"ECCENTRICITY":8.443e-5,"INCLINATION":43.0003,"RA_OF_ASC_NODE":215.0269,"ARG_OF_PERICENTER":281.8765,"MEAN_ANOMALY":78.1992,"EPHEMERIS_TYPE":0,"CLASSIFICATION_TYPE":"U","NORAD_CAT_ID":57866,"ELEMENT_SET_NO":999,"REV_AT_EPOCH":13949,"BSTAR":8.67873e-6,"MEAN_MOTION_DOT":-2.7e-7,"MEAN_MOTION_DDOT":0},{"OBJECT_NAME":"STARLINK-30439","OBJECT_ID":"2023-144D","EPOCH":"2026-03-22T02:01:49.828800","MEAN_MOTION":15.27628361,"ECCENTRICITY":0.00021844,"INCLINATION":43.002,"RA_OF_ASC_NODE":215.1504,"ARG_OF_PERICENTER":268.6128,"MEAN_ANOMALY":91.4474,"EPHEMERIS_TYPE":0,"CLASSIFICATION_TYPE":"U","NORAD_CAT_ID":57867,"ELEMENT_SET_NO":999,"REV_AT_EPOCH":13954,"BSTAR":0.0014880402,"MEAN_MOTION_DOT":0.00040975,"MEAN_MOTION_DDOT":0},{"OBJECT_NAME":"STARLINK-30442","OBJECT_ID":"2023-144E","EPOCH":"2026-03-22T02:07:23.142720","MEAN_MOTION":15.27568853,"ECCENTRICITY":0.00015666,"INCLINATION":43.0024,"RA_OF_ASC_NODE":215.1374,"ARG_OF_PERICENTER":252.432,"MEAN_ANOMALY":107.636,"EPHEMERIS_TYPE":0,"CLASSIFICATION_TYPE":"U","NORAD_CAT_ID":57868,"ELEMENT_SET_NO":999,"REV_AT_EPOCH":13949,"BSTAR":5.3605088e-5,"MEAN_MOTION_DOT":1.213e-5,"MEAN_MOTION_DDOT":0},{"OBJECT_NAME":"STARLINK-30441","OBJECT_ID":"2023-144F","EPOCH":"2026-03-22T01:45:12.096288","MEAN_MOTION":15.27571595,"ECCENTRICITY":6.051e-5,"INCLINATION":42.9989,"RA_OF_ASC_NODE":215.0177,"ARG_OF_PERICENTER":300.6285,"MEAN_ANOMALY":59.4507,"EPHEMERIS_TYPE":0,"CLASSIFICATION_TYPE":"U","NORAD_CAT_ID":57869,"ELEMENT_SET_NO":999,"REV_AT_EPOCH":13949,"BSTAR":8.877189e-6,"MEAN_MOTION_DOT":-1.8e-7,"MEAN_MOTION_DDOT":0},{"OBJECT_NAME":"STARLINK-30460","OBJECT_ID":"2023-144G","EPOCH":"2026-03-22T05:19:25.540896","MEAN_MOTION":15.27563154,"ECCENTRICITY":0.00017844,"INCLINATION":43.0021,"RA_OF_ASC_NODE":214.4597,"ARG_OF_PERICENTER":265.1364,"MEAN_ANOMALY":94.9284,"EPHEMERIS_TYPE":0,"CLASSIFICATION_TYPE":"U","NORAD_CAT_ID":57870,"ELEMENT_SET_NO":999,"REV_AT_EPOCH":13956,"BSTAR":-5.3729402e-5,"MEAN_MOTION_DOT":-1.74e-5,"MEAN_MOTION_DDOT":0},{"OBJECT_NAME":"STARLINK-30444","OBJECT_ID":"2023-144H","EPOCH":"2026-03-22T00:00:02.000160","MEAN_MOTION":15.27529864,"ECCENTRICITY":0.00016051,"INCLINATION":43.0029,"RA_OF_ASC_NODE":215.8156,"ARG_OF_PERICENTER":284.0781,"MEAN_ANOMALY":252.4575,"EPHEMERIS_TYPE":0,"CLASSIFICATION_TYPE":"U","NORAD_CAT_ID":57871,"ELEMENT_SET_NO":999,"REV_AT_EPOCH":574,"BSTAR":0.00050880179,"MEAN_MOTION_DOT":0.00013744,"MEAN_MOTION_DDOT":0},{"OBJECT_NAME":"STARLINK-30446","OBJECT_ID":"2023-144J","EPOCH":"2026-03-21T17:22:04.473696","MEAN_MOTION":15.27602747,"ECCENTRICITY":0.00027192,"INCLINATION":43.0053,"RA_OF_ASC_NODE":203.1136,"ARG_OF_PERICENTER":287.4361,"MEAN_ANOMALY":72.6194,"EPHEMERIS_TYPE":0,"CLASSIFICATION_TYPE":"U","NORAD_CAT_ID":57872,"ELEMENT_SET_NO":999,"REV_AT_EPOCH":13937,"BSTAR":2.3307843e-5,"MEAN_MOTION_DOT":3.79e-6,"MEAN_MOTION_DDOT":0},{"OBJECT_NAME":"STARLINK-30445","OBJECT_ID":"2023-144K","EPOCH":"2026-03-21T00:00:00.999648","MEAN_MOTION":15.27589086,"ECCENTRICITY":0.00019327,"INCLINATION":43.0027,"RA_OF_ASC_NODE":221.4156,"ARG_OF_PERICENTER":285.0128,"MEAN_ANOMALY":166.8799,"EPHEMERIS_TYPE":0,"CLASSIFICATION_TYPE":"U","NORAD_CAT_ID":57873,"ELEMENT_SET_NO":999,"REV_AT_EPOCH":569,"BSTAR":0.00012955941,"MEAN_MOTION_DOT":3.305e-5,"MEAN_MOTION_DDOT":0},{"OBJECT_NAME":"STARLINK-30447","OBJECT_ID":"2023-144L","EPOCH":"2026-03-21T17:23:52.416672","MEAN_MOTION":15.27599622,"ECCENTRICITY":0.0001198,"INCLINATION":43.0015,"RA_OF_ASC_NODE":191.4822,"ARG_OF_PERICENTER":287.7413,"MEAN_ANOMALY":72.3308,"EPHEMERIS_TYPE":0,"CLASSIFICATION_TYPE":"U","NORAD_CAT_ID":57874,"ELEMENT_SET_NO":999,"REV_AT_EPOCH":13977,"BSTAR":0.00013151961,"MEAN_MOTION_DOT":3.361e-5,"MEAN_MOTION_DDOT":0}]
